[{"OBJECT_NAME":"OBJECT B","OBJECT_ID":"2022-023B","EPOCH":"2026-03-09T22:47:53.401632","MEAN_MOTION":15.18262382,"ECCENTRICITY":0.00937159,"INCLINATION":63.476,"RA_OF_ASC_NODE":246.6999,"ARG_OF_PERICENTER":346.6129,"MEAN_ANOMALY":13.2499,"EPHEMERIS_TYPE":0,"CLASSIFICATION_TYPE":"U","NORAD_CAT_ID":51947,"ELEMENT_SET_NO":999,"REV_AT_EPOCH":22265,"BSTAR":0.00086643699,"MEAN_MOTION_DOT":0.00019848,"MEAN_MOTION_DDOT":0},{"OBJECT_NAME":"STARLINK-34451","OBJECT_ID":"2025-129X","EPOCH":"2026-03-09T22:58:51.424896","MEAN_MOTION":14.98693454,"ECCENTRICITY":0.00056389,"INCLINATION":70.0035,"RA_OF_ASC_NODE":73.9332,"ARG_OF_PERICENTER":146.3035,"MEAN_ANOMALY":213.8484,"EPHEMERIS_TYPE":0,"CLASSIFICATION_TYPE":"U","NORAD_CAT_ID":64433,"ELEMENT_SET_NO":999,"REV_AT_EPOCH":4126,"BSTAR":0.0071778696,"MEAN_MOTION_DOT":0.00087465,"MEAN_MOTION_DDOT":0}]
